ONEWEB-0354             
1 49217U 21083AH  26058.20995602  .00000066  00000+0  13021-3 0  9992
2 49217  87.9191 296.3938 0001977  75.5741 284.5612 13.20772303222296
ONEWEB-0355             
1 49218U 21083AJ  26058.20585899 -.00000159  00000+0 -47122-3 0  9990
2 49218  87.9030 342.1178 0001979  82.9971 277.1383 13.13468948216468
ONEWEB-0357             
1 49219U 21083AK  26058.20680012  .00000001  00000+0 -29577-4 0  9994
2 49219  87.9185 296.3896 0001712  87.7972 272.3357 13.20772464222291
ONEWEB-0332             
1 49279U 21090A   26058.22842883  .00000242  00000+0  61846-3 0  9996
2 49279  87.8992 311.6451 0001537  86.0901 274.0405 13.14501821213135
ONEWEB-0347             
1 49280U 21090B   26058.19732277 -.00000024  00000+0 -91848-4 0  9995
2 49280  87.9189 296.4002 0001346  85.8538 274.2749 13.20773461216526
ONEWEB-0349             
1 49281U 21090C   26058.15314715  .00000082  00000+0  16877-3 0  9995
2 49281  87.9188 296.4090 0001700  82.2601 277.8726 13.20772341215304
ONEWEB-0353             
1 49282U 21090D   26058.22050003  .00000277  00000+0  71238-3 0  9999
2 49282  87.9003 311.6402 0001462  85.9259 274.2038 13.14502360213133
ONEWEB-0356             
1 49283U 21090E   26058.22731255  .00000071  00000+0  14365-3 0  9995
2 49283  87.9193 296.3868 0001123  52.7540 307.3695 13.20772620215312
ONEWEB-0358             
1 49284U 21090F   26058.18155370  .00000035  00000+0  54595-4 0  9999
2 49284  87.9195 296.3980 0001711  78.5368 281.5958 13.20771713216034
ONEWEB-0359             
1 49285U 21090G   26058.17838790 -.00000092  00000+0 -25703-3 0  9996
2 49285  87.9191 296.3966 0002077  74.3438 285.7924 13.20773755216018
ONEWEB-0360             
1 49286U 21090H   26058.16891668  .00000135  00000+0  30057-3 0  9993
2 49286  87.9177 296.4078 0001769  87.1973 272.9363 13.20772631215321
ONEWEB-0361             
1 49287U 21090J   26058.14998449  .00000114  00000+0  24742-3 0  9998
2 49287  87.9190 296.4069 0001790  72.5676 287.5653 13.20772296215779
ONEWEB-0362             
1 49288U 21090K   26058.24287831  .00000048  00000+0  87931-4 0  9992
2 49288  87.9238 326.8782 0001892  84.4670 275.6678 13.19725753212419
ONEWEB-0363             
1 49289U 21090L   26058.16578494  .00002576  00000+0  63039-2 0  9991
2 49289  87.9196 296.4034 0001194  75.0680 285.0586 13.20760786215780
ONEWEB-0364             
1 49290U 21090M   26058.20364825  .00000018  00000+0  11578-4 0  9991
2 49290  87.9175 296.4129 0001582  78.3877 281.7434 13.20771757216921
ONEWEB-0365             
1 49291U 21090N   26058.25233924  .00000017  00000+0  11358-4 0  9997
2 49291  87.9259 326.8537 0001767  81.0528 279.0805 13.19726985211923
ONEWEB-0366             
1 49292U 21090P   26058.21732962  .00000196  00000+0  49318-3 0  9994
2 49292  87.8992 311.6520 0001751  76.8245 283.3080 13.14502006213119
