[{"OBJECT_NAME":"ONEWEB-0354","OBJECT_ID":"2021-083AH","EPOCH":"2026-02-27T05:02:20.200128","MEAN_MOTION":13.20772303,"ECCENTRICITY":0.0001977,"INCLINATION":87.9191,"RA_OF_ASC_NODE":296.3938,"ARG_OF_PERICENTER":75.5741,"MEAN_ANOMALY":284.5612,"EPHEMERIS_TYPE":0,"CLASSIFICATION_TYPE":"U","NORAD_CAT_ID":49217,"ELEMENT_SET_NO":999,"REV_AT_EPOCH":22229,"BSTAR":0.00013020913,"MEAN_MOTION_DOT":6.6e-7,"MEAN_MOTION_DDOT":0},{"OBJECT_NAME":"ONEWEB-0355","OBJECT_ID":"2021-083AJ","EPOCH":"2026-02-27T04:56:26.216736","MEAN_MOTION":13.13468948,"ECCENTRICITY":0.00019792,"INCLINATION":87.903,"RA_OF_ASC_NODE":342.1178,"ARG_OF_PERICENTER":82.9971,"MEAN_ANOMALY":277.1383,"EPHEMERIS_TYPE":0,"CLASSIFICATION_TYPE":"U","NORAD_CAT_ID":49218,"ELEMENT_SET_NO":999,"REV_AT_EPOCH":21646,"BSTAR":-0.00047121611,"MEAN_MOTION_DOT":-1.59e-6,"MEAN_MOTION_DDOT":0},{"OBJECT_NAME":"ONEWEB-0357","OBJECT_ID":"2021-083AK","EPOCH":"2026-02-27T04:57:47.530368","MEAN_MOTION":13.20772464,"ECCENTRICITY":0.00017125,"INCLINATION":87.9185,"RA_OF_ASC_NODE":296.3896,"ARG_OF_PERICENTER":87.7972,"MEAN_ANOMALY":272.3357,"EPHEMERIS_TYPE":0,"CLASSIFICATION_TYPE":"U","NORAD_CAT_ID":49219,"ELEMENT_SET_NO":999,"REV_AT_EPOCH":22229,"BSTAR":-2.9577482e-5,"MEAN_MOTION_DOT":1.0e-8,"MEAN_MOTION_DDOT":0},{"OBJECT_NAME":"ONEWEB-0332","OBJECT_ID":"2021-090A","EPOCH":"2026-02-27T05:28:56.250912","MEAN_MOTION":13.14501821,"ECCENTRICITY":0.00015379,"INCLINATION":87.8992,"RA_OF_ASC_NODE":311.6451,"ARG_OF_PERICENTER":86.0901,"MEAN_ANOMALY":274.0405,"EPHEMERIS_TYPE":0,"CLASSIFICATION_TYPE":"U","NORAD_CAT_ID":49279,"ELEMENT_SET_NO":999,"REV_AT_EPOCH":21313,"BSTAR":0.00061846022,"MEAN_MOTION_DOT":2.42e-6,"MEAN_MOTION_DDOT":0},{"OBJECT_NAME":"ONEWEB-0347","OBJECT_ID":"2021-090B","EPOCH":"2026-02-27T04:44:08.687328","MEAN_MOTION":13.20773461,"ECCENTRICITY":0.00013465,"INCLINATION":87.9189,"RA_OF_ASC_NODE":296.4002,"ARG_OF_PERICENTER":85.8538,"MEAN_ANOMALY":274.2749,"EPHEMERIS_TYPE":0,"CLASSIFICATION_TYPE":"U","NORAD_CAT_ID":49280,"ELEMENT_SET_NO":999,"REV_AT_EPOCH":21652,"BSTAR":-9.1848427e-5,"MEAN_MOTION_DOT":-2.4e-7,"MEAN_MOTION_DDOT":0},{"OBJECT_NAME":"ONEWEB-0349","OBJECT_ID":"2021-090C","EPOCH":"2026-02-27T03:40:31.913760","MEAN_MOTION":13.20772341,"ECCENTRICITY":0.00017001,"INCLINATION":87.9188,"RA_OF_ASC_NODE":296.409,"ARG_OF_PERICENTER":82.2601,"MEAN_ANOMALY":277.8726,"EPHEMERIS_TYPE":0,"CLASSIFICATION_TYPE":"U","NORAD_CAT_ID":49281,"ELEMENT_SET_NO":999,"REV_AT_EPOCH":21530,"BSTAR":0.00016876939,"MEAN_MOTION_DOT":8.2e-7,"MEAN_MOTION_DDOT":0},{"OBJECT_NAME":"ONEWEB-0353","OBJECT_ID":"2021-090D","EPOCH":"2026-02-27T05:17:31.202592","MEAN_MOTION":13.1450236,"ECCENTRICITY":0.00014621,"INCLINATION":87.9003,"RA_OF_ASC_NODE":311.6402,"ARG_OF_PERICENTER":85.9259,"MEAN_ANOMALY":274.2038,"EPHEMERIS_TYPE":0,"CLASSIFICATION_TYPE":"U","NORAD_CAT_ID":49282,"ELEMENT_SET_NO":999,"REV_AT_EPOCH":21313,"BSTAR":0.00071237985,"MEAN_MOTION_DOT":2.77e-6,"MEAN_MOTION_DDOT":0},{"OBJECT_NAME":"ONEWEB-0356","OBJECT_ID":"2021-090E","EPOCH":"2026-02-27T05:27:19.804320","MEAN_MOTION":13.2077262,"ECCENTRICITY":0.00011234,"INCLINATION":87.9193,"RA_OF_ASC_NODE":296.3868,"ARG_OF_PERICENTER":52.754,"MEAN_ANOMALY":307.3695,"EPHEMERIS_TYPE":0,"CLASSIFICATION_TYPE":"U","NORAD_CAT_ID":49283,"ELEMENT_SET_NO":999,"REV_AT_EPOCH":21531,"BSTAR":0.00014364865,"MEAN_MOTION_DOT":7.1e-7,"MEAN_MOTION_DDOT":0},{"OBJECT_NAME":"ONEWEB-0358","OBJECT_ID":"2021-090F","EPOCH":"2026-02-27T04:21:26.239680","MEAN_MOTION":13.20771713,"ECCENTRICITY":0.00017114,"INCLINATION":87.9195,"RA_OF_ASC_NODE":296.398,"ARG_OF_PERICENTER":78.5368,"MEAN_ANOMALY":281.5958,"EPHEMERIS_TYPE":0,"CLASSIFICATION_TYPE":"U","NORAD_CAT_ID":49284,"ELEMENT_SET_NO":999,"REV_AT_EPOCH":21603,"BSTAR":5.4595203e-5,"MEAN_MOTION_DOT":3.5e-7,"MEAN_MOTION_DDOT":0},{"OBJECT_NAME":"ONEWEB-0359","OBJECT_ID":"2021-090G","EPOCH":"2026-02-27T04:16:52.714560","MEAN_MOTION":13.20773755,"ECCENTRICITY":0.00020775,"INCLINATION":87.9191,"RA_OF_ASC_NODE":296.3966,"ARG_OF_PERICENTER":74.3438,"MEAN_ANOMALY":285.7924,"EPHEMERIS_TYPE":0,"CLASSIFICATION_TYPE":"U","NORAD_CAT_ID":49285,"ELEMENT_SET_NO":999,"REV_AT_EPOCH":21601,"BSTAR":-0.00025702628,"MEAN_MOTION_DOT":-9.2e-7,"MEAN_MOTION_DDOT":0},{"OBJECT_NAME":"ONEWEB-0360","OBJECT_ID":"2021-090H","EPOCH":"2026-02-27T04:03:14.401152","MEAN_MOTION":13.20772631,"ECCENTRICITY":0.0001769,"INCLINATION":87.9177,"RA_OF_ASC_NODE":296.4078,"ARG_OF_PERICENTER":87.1973,"MEAN_ANOMALY":272.9363,"EPHEMERIS_TYPE":0,"CLASSIFICATION_TYPE":"U","NORAD_CAT_ID":49286,"ELEMENT_SET_NO":999,"REV_AT_EPOCH":21532,"BSTAR":0.00030056831,"MEAN_MOTION_DOT":1.35e-6,"MEAN_MOTION_DDOT":0},{"OBJECT_NAME":"ONEWEB-0361","OBJECT_ID":"2021-090J","EPOCH":"2026-02-27T03:35:58.659936","MEAN_MOTION":13.20772296,"ECCENTRICITY":0.00017909,"INCLINATION":87.919,"RA_OF_ASC_NODE":296.4069,"ARG_OF_PERICENTER":72.5676,"MEAN_ANOMALY":287.5653,"EPHEMERIS_TYPE":0,"CLASSIFICATION_TYPE":"U","NORAD_CAT_ID":49287,"ELEMENT_SET_NO":999,"REV_AT_EPOCH":21577,"BSTAR":0.00024741989,"MEAN_MOTION_DOT":1.14e-6,"MEAN_MOTION_DDOT":0},{"OBJECT_NAME":"ONEWEB-0362","OBJECT_ID":"2021-090K","EPOCH":"2026-02-27T05:49:44.685984","MEAN_MOTION":13.19725753,"ECCENTRICITY":0.00018929,"INCLINATION":87.9238,"RA_OF_ASC_NODE":326.8782,"ARG_OF_PERICENTER":84.467,"MEAN_ANOMALY":275.6678,"EPHEMERIS_TYPE":0,"CLASSIFICATION_TYPE":"U","NORAD_CAT_ID":49288,"ELEMENT_SET_NO":999,"REV_AT_EPOCH":21241,"BSTAR":8.7930633e-5,"MEAN_MOTION_DOT":4.8e-7,"MEAN_MOTION_DDOT":0},{"OBJECT_NAME":"ONEWEB-0363","OBJECT_ID":"2021-090L","EPOCH":"2026-02-27T03:58:43.818816","MEAN_MOTION":13.20760786,"ECCENTRICITY":0.00011947,"INCLINATION":87.9196,"RA_OF_ASC_NODE":296.4034,"ARG_OF_PERICENTER":75.068,"MEAN_ANOMALY":285.0586,"EPHEMERIS_TYPE":0,"CLASSIFICATION_TYPE":"U","NORAD_CAT_ID":49289,"ELEMENT_SET_NO":999,"REV_AT_EPOCH":21578,"BSTAR":0.0063039275,"MEAN_MOTION_DOT":2.576e-5,"MEAN_MOTION_DDOT":0},{"OBJECT_NAME":"ONEWEB-0364","OBJECT_ID":"2021-090M","EPOCH":"2026-02-27T04:53:15.208800","MEAN_MOTION":13.20771757,"ECCENTRICITY":0.00015824,"INCLINATION":87.9175,"RA_OF_ASC_NODE":296.4129,"ARG_OF_PERICENTER":78.3877,"MEAN_ANOMALY":281.7434,"EPHEMERIS_TYPE":0,"CLASSIFICATION_TYPE":"U","NORAD_CAT_ID":49290,"ELEMENT_SET_NO":999,"REV_AT_EPOCH":21692,"BSTAR":1.1578446e-5,"MEAN_MOTION_DOT":1.8e-7,"MEAN_MOTION_DDOT":0},{"OBJECT_NAME":"ONEWEB-0365","OBJECT_ID":"2021-090N","EPOCH":"2026-02-27T06:03:22.110336","MEAN_MOTION":13.19726985,"ECCENTRICITY":0.00017679,"INCLINATION":87.9259,"RA_OF_ASC_NODE":326.8537,"ARG_OF_PERICENTER":81.0528,"MEAN_ANOMALY":279.0805,"EPHEMERIS_TYPE":0,"CLASSIFICATION_TYPE":"U","NORAD_CAT_ID":49291,"ELEMENT_SET_NO":999,"REV_AT_EPOCH":21192,"BSTAR":1.1357865e-5,"MEAN_MOTION_DOT":1.7e-7,"MEAN_MOTION_DDOT":0},{"OBJECT_NAME":"ONEWEB-0366","OBJECT_ID":"2021-090P","EPOCH":"2026-02-27T05:12:57.279168","MEAN_MOTION":13.14502006,"ECCENTRICITY":0.00017516,"INCLINATION":87.8992,"RA_OF_ASC_NODE":311.652,"ARG_OF_PERICENTER":76.8245,"MEAN_ANOMALY":283.308,"EPHEMERIS_TYPE":0,"CLASSIFICATION_TYPE":"U","NORAD_CAT_ID":49292,"ELEMENT_SET_NO":999,"REV_AT_EPOCH":21311,"BSTAR":0.00049318127,"MEAN_MOTION_DOT":1.96e-6,"MEAN_MOTION_DDOT":0}]
